#cV2024  5 31 16 37  0.00000000   14307 ORBIT ITRF  FIT CNES
## 2316 491820.00000000    60.00000000 60461 0.6923611111111
+    1   L39  0  0  0  0  0  0  0  0  0  0  0  0  0  0  0  0
+          0  0  0  0  0  0  0  0  0  0  0  0  0  0  0  0  0
+          0  0  0  0  0  0  0  0  0  0  0  0  0  0  0  0  0
+          0  0  0  0  0  0  0  0  0  0  0  0  0  0  0  0  0
+          0  0  0  0  0  0  0  0  0  0  0  0  0  0  0  0  0
++
++
++         0  0  0  0  0  0  0  0  0  0  0  0  0  0  0  0  0
++         0  0  0  0  0  0  0  0  0  0  0  0  0  0  0  0  0
++         0  0  0  0  0  0  0  0  0  0  0  0  0  0  0  0  0
%c L  cc TAI ccc cccc cccc cccc cccc ccccc ccccc ccccc ccccc
%c cc cc ccc ccc cccc cccc cccc cccc ccccc ccccc ccccc ccccc
%f  1.2500000  1.025000000  0.00000000000  0.000000000000000
%f  0.0000000  0.000000000  0.00000000000  0.000000000000000
%i    0    0    0    0      0      0      0      0         0
%i    0    0    0    0      0      0      0      0         0
/* CCCCCCCCCCCCCCCCCCCCCCCCCCCCCCCCCCCCCCCCCCCCCCCCCCCCCCCCC
/* CCCCCCCCCCCCCCCCCCCCCCCCCCCCCCCCCCCCCCCCCCCCCCCCCCCCCCCCC
/* CCCCCCCCCCCCCCCCCCCCCCCCCCCCCCCCCCCCCCCCCCCCCCCCCCCCCCCCC
/* CCCCCCCCCCCCCCCCCCCCCCCCCCCCCCCCCCCCCCCCCCCCCCCCCCCCCCCCC
*  2024  5 31 22 13  0.00000000
PL39  -1322.626044  -3719.465704  -6629.933369 999999.999999
VL39  63605.490218  17217.603562 -22330.655148 999999.999999
*  2024  5 31 22 14  0.00000000
PL39   -938.680106  -3612.135587  -6753.504738 999999.999999
VL39  64345.411871  18548.757512 -18849.158632 999999.999999
*  2024  5 31 22 15  0.00000000
PL39   -550.856634  -3497.007119  -6856.006429 999999.999999
VL39  64897.585436  19816.666113 -15309.245712 999999.999999
*  2024  5 31 22 16  0.00000000
PL39   -160.289061  -3374.466535  -6937.120803 999999.999999
VL39  65259.787709  21019.111270 -11721.895406 999999.999999
*  2024  5 31 22 17  0.00000000
PL39    231.877505  -3244.912725  -6996.596525 999999.999999
VL39  65430.351565  22154.093159  -8098.224324 999999.999999
*  2024  5 31 22 18  0.00000000
PL39    624.489633  -3108.755922  -7034.249293 999999.999999
VL39  65408.171764  23219.829965  -4449.454690 999999.999999
*  2024  5 31 22 19  0.00000000
PL39   1016.388963  -2966.416399  -7049.962374 999999.999999
VL39  65192.709690  24214.757037   -786.882545 999999.999999
*  2024  5 31 22 20  0.00000000
PL39   1406.415611  -2818.323168  -7043.686954 999999.999999
VL39  64783.997372  25137.525780   2878.154132 999999.999999
*  2024  5 31 22 21  0.00000000
PL39   1793.411605  -2664.912688  -7015.442291 999999.999999
VL39  64182.640577  25987.002577   6534.308234 999999.999999
*  2024  5 31 22 22  0.00000000
PL39   2176.224332  -2506.627576  -6965.315668 999999.999999
VL39  63389.819723  26762.267317  10170.257540 999999.999999
*  2024  5 31 22 23  0.00000000
PL39   2553.709982  -2343.915336  -6893.462143 999999.999999
VL39  62407.288256  27462.610671  13774.738628 999999.999999
*  2024  5 31 22 24  0.00000000
PL39   2924.736979  -2177.227108  -6800.104093 999999.999999
VL39  61237.369565  28087.530313  17336.579710 999999.999999
*  2024  5 31 22 25  0.00000000
PL39   3288.189384  -2007.016432  -6685.530573 999999.999999
VL39  59882.953018  28636.726892  20844.732924 999999.999999
*  2024  5 31 22 26  0.00000000
PL39   3642.970283  -1833.738045  -6550.096470 999999.999999
VL39  58347.489011  29110.100079  24288.306651 999999.999999
*  2024  5 31 22 27  0.00000000
PL39   3988.005129  -1657.846701  -6394.221472 999999.999999
VL39  56634.981824  29507.744192  27656.598124 999999.999999
*  2024  5 31 22 28  0.00000000
PL39   4322.245041  -1479.796017  -6218.388838 999999.999999
VL39  54749.980701  29829.943178  30939.125205 999999.999999
*  2024  5 31 22 29  0.00000000
PL39   4644.670044  -1300.037349  -6023.143979 999999.999999
VL39  52697.570106  30077.165296  34125.657143 999999.999999
*  2024  5 31 22 30  0.00000000
PL39   4954.292248  -1119.018704  -5809.092860 999999.999999
VL39  50483.359145  30250.057934  37206.245455 999999.999999
*  2024  5 31 22 31  0.00000000
PL39   5250.158962   -937.183681  -5576.900213 999999.999999
VL39  48113.469240  30349.442421  40171.255230 999999.999999
*  2024  5 31 22 32  0.00000000
PL39   5531.355727   -754.970442  -5327.287560 999999.999999
VL39  45594.519451  30376.308564  43011.396467 999999.999999
*  2024  5 31 22 33  0.00000000
PL39   5797.009244   -572.810721  -5061.031049 999999.999999
VL39  42933.609291  30331.808490  45717.754711 999999.999999
*  2024  5 31 22 34  0.00000000
PL39   6046.290210   -391.128867  -4778.959117 999999.999999
VL39  40138.299542  30217.249742  48281.820330 999999.999999
*  2024  5 31 22 35  0.00000000
PL39   6278.416015   -210.340939  -4481.949975 999999.999999
VL39  37216.591588  30034.087926  50695.516325 999999.999999
*  2024  5 31 22 36  0.00000000
PL39   6492.653326    -30.853834  -4170.928929 999999.999999
VL39  34176.905519  29783.919169  52951.224710 999999.999999
*  2024  5 31 22 37  0.00000000
PL39   6688.320531    146.935528  -3846.865555 999999.999999
VL39  31028.057213  29468.472644  55041.811842 999999.999999
*  2024  5 31 22 38  0.00000000
PL39   6864.790040    322.640984  -3510.770714 999999.999999
VL39  27779.233901  29089.603188  56960.653152 999999.999999
*  2024  5 31 22 39  0.00000000
PL39   7021.490431    495.887859  -3163.693429 999999.999999
VL39  24439.967629  28649.283742  58701.657001 999999.999999
*  2024  5 31 22 40  0.00000000
PL39   7157.908443    666.313649  -2806.717616 999999.999999
VL39  21020.106607  28149.597481  60259.287019 999999.999999
*  2024  5 31 22 41  0.00000000
PL39   7273.590772    833.568660  -2440.958694 999999.999999
VL39  17529.784703  27592.729599  61628.582515 999999.999999
*  2024  5 31 22 42  0.00000000
PL39   7368.145698    997.316593  -2067.560070 999999.999999
VL39  13979.389456  26980.958750  62805.176631 999999.999999
*  2024  5 31 22 43  0.00000000
PL39   7441.244503   1157.235081  -1687.689533 999999.999999
VL39  10379.529138  26316.648245  63785.312174 999999.999999
*  2024  5 31 22 44  0.00000000
PL39   7492.622697   1313.016167  -1302.535550 999999.999999
VL39   6740.999080  25602.237245  64565.855491 999999.999999
*  2024  5 31 22 45  0.00000000
PL39   7522.081039   1464.366736   -913.303491 999999.999999
VL39   3074.746771  24840.232041  65144.308541 999999.999999
*  2024  5 31 22 46  0.00000000
PL39   7529.486335   1611.008889   -521.211778 999999.999999
VL39   -608.164521  24033.197254  65518.818497 999999.999999
*  2024  5 31 22 47  0.00000000
PL39   7514.772028   1752.680269   -127.488001 999999.999999
VL39  -4296.592762  23183.746825  65688.184226 999999.999999
*  2024  5 31 22 48  0.00000000
PL39   7477.938556   1889.134326    266.635009 999999.999999
VL39  -7979.353896  22294.534879  65651.860062 999999.999999
*  2024  5 31 22 49  0.00000000
PL39   7419.053497   2020.140534    659.923119 999999.999999
VL39 -11645.258201  21368.246541  65409.957545 999999.999999
*  2024  5 31 22 50  0.00000000
PL39   7338.251494   2145.484546   1051.144837 999999.999999
VL39 -15283.146643  20407.588875  64963.245486 999999.999999
*  2024  5 31 22 51  0.00000000
PL39   7235.733959   2264.968302   1439.075251 999999.999999
VL39 -18881.927930  19415.281951  64313.147995 999999.999999
*  2024  5 31 22 52  0.00000000
PL39   7111.768555   2378.410080   1822.499948 999999.999999
VL39 -22430.615875  18394.050013  63461.739365 999999.999999
*  2024  5 31 22 53  0.00000000
PL39   6966.688456   2485.644493   2200.218891 999999.999999
VL39 -25918.365865  17346.613078  62411.735909 999999.999999
*  2024  5 31 22 54  0.00000000
PL39   6800.891389   2586.522444   2571.050244 999999.999999
VL39 -29334.510263  16275.679206  61166.485689 999999.999999
*  2024  5 31 22 55  0.00000000
PL39   6614.838472   2680.911030   2933.834121 999999.999999
VL39 -32668.593261  15183.937218  59729.956413 999999.999999
*  2024  5 31 22 56  0.00000000
PL39   6409.052831   2768.693402   3287.436269 999999.999999
VL39 -35910.405272  14074.049483  58106.721157 999999.999999
*  2024  5 31 22 57  0.00000000
PL39   6184.118031   2849.768592   3630.751648 999999.999999
VL39 -39050.016389  12948.644703  56301.941544 999999.999999
*  2024  5 31 22 58  0.00000000
PL39   5940.676295   2924.051284   3962.707904 999999.999999
VL39 -42077.808327  11810.311022  54321.348520 999999.999999
*  2024  5 31 22 59  0.00000000
PL39   5679.426547   2991.471553   4282.268726 999999.999999
VL39 -44984.504546  10661.589604  52171.220935 999999.999999
*  2024  5 31 23  0  0.00000000
PL39   5401.122273   3051.974565   4588.437060 999999.999999
VL39 -47761.197656   9504.969129  49858.362356 999999.999999
*  2024  5 31 23  1  0.00000000
PL39   5106.569235   3105.520253   4880.258192 999999.999999
VL39 -50399.374542   8342.881932  47390.078463 999999.999999
*  2024  5 31 23  2  0.00000000
PL39   4796.623026   3152.082965   5156.822692 999999.999999
VL39 -52890.942501   7177.700491  44774.154957 999999.999999
*  2024  5 31 23  3  0.00000000
PL39   4472.186464   3191.651091   5417.269224 999999.999999
VL39 -55228.256748   6011.732585  42018.831816 999999.999999
*  2024  5 31 23  4  0.00000000
PL39   4134.206831   3224.226665   5660.787177 999999.999999
VL39 -57404.144469   4847.216571  39132.773245 999999.999999
*  2024  5 31 23  5  0.00000000
PL39   3783.672980   3249.824930   5886.619123 999999.999999
VL39 -59411.924549   3686.318201  36125.036832 999999.999999
*  2024  5 31 23  6  0.00000000
PL39   3421.612331   3268.473906   6094.063082 999999.999999
VL39 -61245.424779   2531.128579  33005.043235 999999.999999
*  2024  5 31 23  7  0.00000000
PL39   3049.087774   3280.213926   6282.474615 999999.999999
VL39 -62898.997351   1383.662825  29782.546339 999999.999999
*  2024  5 31 23  8  0.00000000
PL39   2667.194472   3285.097189   6451.268729 999999.999999
VL39 -64367.533518    245.859329  26467.603867 999999.999999
EOF
